SB KEPS @ AMSAT  $ORB11146.N
2Line Orbital Elements 11146.AMSAT

HR AMSAT ORBITAL ELEMENTS FOR AMATEUR SATELLITES IN NASA FORMAT
FROM WA5QGD FORT WORTH,TX May 26, 2011
Send Subscribe/unsubscribe to KEPS at http://www.amsat.org/mailman/listinfo/keps
BID: ORB11146.N

DECODE 2-LINE ELSETS WITH THE FOLLOWING KEY:
1 AAAAAU 00  0  0 BBBBB.BBBBBBBB  .CCCCCCCC  00000-0  00000-0 0  DDDZ
2 AAAAA EEE.EEEE FFF.FFFF GGGGGGG HHH.HHHH III.IIII JJ.JJJJJJJJKKKKKZ
KEY: A-CATALOGNUM B-EPOCHTIME C-DECAY D-ELSETNUM E-INCLINATION F-RAAN
G-ECCENTRICITY H-ARGPERIGEE I-MNANOM J-MNMOTION K-ORBITNUM Z-CHECKSUM

TO ALL RADIO AMATEURS BT

SO-33
1 25509U 98061B   11145.80055912  .00000169  00000-0  23472-4 0 09748
2 25509 031.4339 010.9206 0353007 045.7768 317.1288 14.28402902657076
FO-29
1 24278U 96046B   11145.94362386  .00000071  00000-0  11084-3 0 05969
2 24278 098.5431 293.0687 0350111 315.0103 042.3155 13.52961323729456
AO-07
1 07530U 74089B   11146.60846355 -.00000027  00000-0  10000-3 0   875
2 07530 101.3915 154.0014 0011881 323.3489 036.6761 12.53582509671488
VO-52
1 28650U 05017B   11146.69286440  .00000615  00000-0  83402-4 0  8033
2 28650 097.6424 190.7834 0025809 230.8932 129.0012 14.82060310327561
HO-68
1 36122U 09072B   11146.72843402 -.00000045  00000-0  00000 0 0  4090
2 36122 100.4162 207.8629 0007154 274.4174 085.6127 13.16286482 69410
RS-22
1 27939U 03042A   11146.75600223  .00000189  00000-0  44927-4 0  2932
2 27939 097.8497 001.7769 0014622 055.3879 304.8698 14.63584266409206
SO-67
1 35870U 09049F   11146.77046693  .00001199  00000-0  57552-4 0  8739
2 35870 097.2819 190.8417 0003952 093.1506 016.1511 15.20717874 93687
AO-51
1 28375U 04025K   11145.54024374  .00000086  00000-0  38228-4 0 09796
2 28375 098.0965 125.1797 0084050 138.0654 222.7000 14.40756900362808
GO-32
1 25397U 98043D   11145.55549081 -.00000153  00000-0 -49508-4 0  4872
2 25397 098.3242 139.3296 0001596 023.6396 336.4833 14.23207885668740
CO-55
1 27844U 03031E   11145.57142364  .00000098  00000-0  65793-4 0 01180
2 27844 098.7053 154.6009 0008895 266.5940 093.4218 14.20809320409702
CO-57
1 27848U 03031J   11145.58175272  .00000093  00000-0  63585-4 0   663
2 27848 098.7120 153.7939 0008766 270.4244 089.5925 14.20589276409651
NO-44
1 26931U 01043C   11145.72468712  .00000004  00000-0  33840-4 0 07600
2 26931 067.0528 041.4074 0006949 261.7510 098.2822 14.29659172503714
CO-65
1 32785U 08021C   11145.72996194 -.00000053  00000-0 -49110-7 0 00000
2 32785 097.8502 210.0506 0013576 249.0733 110.9036 14.81987776166216
UO-11
1 14781U 84021B   11145.76017721  .00000070  00000-0  16220-4 0 05650
2 14781 098.0068 202.5386 0008459 205.7498 154.3293 14.79969574462472
STUDSAT
1 36801U 10035G   11145.77603361  .00001449  00000-0  19582-3 0 02036
2 36801 098.1096 213.6621 0013371 343.5318 016.5451 14.80576499046988
SO-50
1 27607U 02058C   11145.84583953  .00000095  00000-0  36567-4 0  4747
2 27607 064.5594 035.5643 0070212 326.2329 033.4291 14.71743604452800
SOHLA-1
1 33496U 09002E   11145.85425054  .00000028  00000-0  12939-4 0 04297
2 33496 098.0788 255.9139 0006235 185.5492 174.5642 14.69614588125202
AO-16
1 20439U 90005D   11145.87120047  .00000053  00000-0  35615-4 0 02055
2 20439 098.3830 096.2375 0010068 227.5954 132.4376 14.31920226114420
LO-19
1 20442U 90005G   11145.88432015  .00000155  00000-0  73181-4 0  1086
2 20442 098.3460 100.6882 0011118 220.2417 139.7944 14.32146589114601
AO-27
1 22825U 93061C   11145.88973827  .00000151  00000-0  76267-4 0  8259
2 22825 098.5306 090.8040 0008227 347.8307 012.2670 14.29347904921007
IO-26
1 22826U 93061D   11145.89326954  .00000045  00000-0  34565-4 0 05933
2 22826 098.5249 091.2901 0008808 342.2563 017.8312 14.29609276921123
CP3
1 31129U 07012N   11146.51820350  .00000418  00000-0  10654-3 0  8770
2 31129 097.9004 171.9843 0100659 247.8458 111.2021 14.52480952217692
TISAT-1
1 36799U 10035E   11146.71303168  .00000559  00000-0  79950-4 0  8908
2 36799 098.1024 214.7490 0014988 351.9422 008.1543 14.80542671 47137
KKS-1
1 33493U 09002B   11146.75297461  .00000883  00000-0  11876-3 0  6157
2 33493 098.1220 275.0552 0021104 109.6685 250.6814 14.81677935126348
RAX
1 37223U 0        11145.39435149  .00000446  00000-0  70331-4 0 01700
2 37223 071.9708 089.0102 0021524 324.1787 035.7935 14.77405982027522
OOREOS
1 37224U 10062C   11076.42207246  .00000868  00000-0  13086-3 0 01095
2 37224 071.9712 241.3960 0017800 096.5373 263.7815 14.76929834017329
FO-69
1 37227U 0        11143.46551303  .00000141  00000-0  28191-4 0 00350
2 37227 071.9698 093.7761 0017832 322.8506 037.1430 14.76583140005678
NANOSALD
1 37361U 0        11143.41111548  .00031284  00000-0  28948-2 0 02056
2 37361 071.9552 090.4741 0024607 230.0347 129.7364 14.94171307018417
FO-70
1 37380U 0        11143.27198841  .00000077  00000-0  19056-4 0 01701
2 37380 071.9730 094.2794 0018518 320.2485 039.7319 14.76349689027189
MET-2/21
1 22782U 93055A   11145.69481951  .00000024  00000-0  85628-5 0 01046
2 22782 082.5474 340.7253 0022943 158.3685 201.8433 13.83657773895444
NOAA-10
1 16969U 86073A   11145.70958186 -.00000077  00000-0 -13409-4 0 05129
2 16969 098.6196 175.8012 0011528 294.1763 065.8221 14.27461042284442
NOAA-16
1 26536U 00055A   11145.76568446  .00000194  00000-0  12965-3 0 03095
2 26536 099.1406 175.8511 0011462 095.5853 264.6600 14.12620404550198
NOAA-17
1 27453U 02032A   11145.76612777  .00000122  00000-0  70868-4 0 03029
2 27453 098.3799 186.5036 0011176 210.9456 149.1040 14.24274690463461
NOAA-18
1 28654U 05018A   11145.77065274  .00000478  00000-0  28799-3 0 07826
2 28654 098.9940 096.8645 0014453 164.5319 195.6301 14.11478084309768
NOAA-11
1 19531U 88089A   11145.78376559  .00000203  00000-0  12733-3 0 05141
2 19531 098.7517 233.6701 0010443 252.0328 107.9700 14.14917183169586
NOAA-19
1 33591U 09005A   11145.83383614  .00000107  00000-0  83590-4 0 09732
2 33591 098.8250 086.3647 0014959 041.9981 318.2363 14.11167156118233
NOAA-15
1 25338U 98030A   11145.83542036  .00000291  00000-0  14321-3 0 08270
2 25338 098.6533 132.2860 0011005 152.3607 207.8147 14.24916808677541
FENGYUN1
1 25730U 99025A   11145.93869517  .00000013  00000-0  32817-4 0 03467
2 25730 098.8177 107.6249 0025781 016.1020 344.0959 14.08608989619936
NOAA-14
1 23455U 94089A   11145.95550100  .00000005  00000-0  26198-4 0 05076
2 23455 098.8506 228.8110 0009492 348.8093 011.2865 14.13819569845937
OKEAN-4
1 23317U 94066A   11145.96705413  .00000199  00000-0  21439-4 0 05839
2 23317 082.5419 033.8888 0021310 187.6132 172.4763 14.83066474897254
RESURS
1 25394U 98043A   11145.97758128 -.00000011  00000-0  12818-4 0 08082
2 25394 098.3011 150.2254 0001281 345.8353 014.2792 14.24233636669144
NOAA-12
1 21263U 91032A   11145.97991747  .00000051  00000-0  40468-4 0 00234
2 21263 098.7501 163.8622 0011381 252.1684 107.8255 14.25712368041244
MET-3/5
1 21655U 91056A   11146.86269627  .00000051  00000-0  10000-3 0  1193
2 21655 082.5580 065.8407 0012542 205.2408 154.8066 13.17029193950914
OKEAN-0
1 25860U 99039A   11146.91111136  .00000128  00000-0  26942-4 0  3179
2 25860 097.8824 113.9440 0001967 062.5858 297.5544 14.73782739637520
HUBBLE
1 20580U 90037B   11144.25373681  .00000648  00000-0  36347-4 0  7690
2 20580 028.4697 172.7905 0003576 224.3693 135.6442 15.01362480956054
AAUSAT2
1 32788U 08021F   11145.70034264  .00000874  00000-0  11508-3 0 09860
2 32788 097.8476 210.1490 0014129 250.6259 109.3409 14.82585827166249
CP6
1 35004U 09028D   11145.73595245  .00071485  00000-0  60073-3 0 06343
2 35004 040.4589 273.6376 0019704 070.9728 289.3222 15.68625821113986
DO-64
1 32789U 08021G   11145.78443797  .00000730  00000-0  96221-4 0    20
2 32789 097.8580 211.1945 0014181 246.2904 113.6789 14.83030690166263
HAWKSAT1
1 35003U 09028C   11145.81454443  .00048297  00000-0  51022-3 0 06344
2 35003 040.4552 280.6469 0021412 065.6096 294.6959 15.63032113113925
TACSAT-3
1 35001U 09028A   11145.87656075  .00011712  00000-0  21755-3 0 06097
2 35001 040.4554 308.1966 0022620 039.4627 320.7834 15.48410461113623
CO-66
1 32791U 08021J   11146.21842101  .00000861  00000-0  11472-3 0  9886
2 32791 097.8499 210.3905 0014708 245.7534 114.2173 14.82098916166257
FALCON
1 30776U 07006E   11146.34527386  .00001029  00000-0  74767-4 0   939
2 30776 035.4322 119.7833 0002061 270.3915 089.6565 15.04597286231756
CO-58
1 28895U 05043F   11146.47864792  .00000098  00000-0  29770-4 0  8832
2 28895 097.9694 023.7030 0016523 289.7702 070.1702 14.60099771297071
RS-30
1 32953U 08025A   11146.57652159  .00000010  00000-0  00000 0 0  7640
2 32953 082.5011 176.1579 0020464 075.5326 284.8023 12.43013065136407
CAPE1
1 31130U 07012P   11146.59596276  .00000198  00000-0  56135-4 0  1848
2 31130 097.9004 171.8403 0101255 248.2177 110.8224 14.52388099217500
COMPASS
1 32787U 08021E   11146.74632124  .00000841  00000-0  11137-3 0  9966
2 32787 097.8476 210.9595 0014527 244.5609 115.4098 14.82402770166387
METEOR-M
1 35865U 09049A   11146.75846885  .00000176  00000-0  10000-3 0  4019
2 35865 098.7075 202.1624 0003255 086.1381 274.0114 14.21838770 87548
RS-38
1 35869U 09049E   11146.76116777  .00000177  00000-0  10000-3 0  3946
2 35869 098.7039 202.2014 0005394 089.8034 270.3712 14.22011889 87556
PHARMSAT
1 35002U 09028B   11146.80591608  .00009645  00000-0  18166-3 0  5589
2 35002 040.4698 300.2066 0024360 052.9179 307.3863 15.48118575113794
ISS
1 25544U 98067A   11146.82998442  .00016276  00000-0  10856-3 0  4236
2 25544 051.6479 270.2731 0003248 327.3115 170.5090 15.75536230717548
MAST
1 31126U 07012K   11146.83633957  .00000047  00000-0  21001-4 0  1687
2 31126 097.8940 175.2673 0093225 236.7242 122.5003 14.53745227217980
/EX
